openbareruimte;huisnummer;huisletter;huisnummertoevoeging;postcode;woonplaats;gemeente;provincie;nummeraanduiding;verblijfsobjectgebruiksdoel;oppervlakteverblijfsobject;verblijfsobjectstatus;object_id;object_type;nevenadres;pandid;pandstatus;pandbouwjaar;x;y;lon;lat;verkorteopenbareruimte
Revaleiland;446;;;1014ZG;Amsterdam;Amsterdam;Noord-Holland;0363200012129838;woonfunctie;161;Verblijfsobject gevormd;0363010012127937;VBO;f;0363100012250186;Bouwvergunning verleend;2017;120595.409;489706.904;4.88175301801513;52.3941286651264;
Nieuwe Looiersstraat;71;A;;1017VB;Amsterdam;Amsterdam;Noord-Holland;0363200000535357;woonfunctie;1;Verblijfsobject in gebruik;0363010001165473;VBO;f;0363100012180330;Pand in gebruik;1005;121516;485954;4.89565126411048;52.3604571877261;
Derde Wittenburgerdwarsstraat;40;;;1018KT;Amsterdam;Amsterdam;Noord-Holland;0363200000019647;woonfunctie;69;Verblijfsobject in gebruik;0363010000556775;VBO;f;0363100012169751;Pand in gebruik;1984;123442;487351;4.92379335894988;52.3731265126493;Derde Wittenburgerdwstr
Derde Wittenburgerdwarsstraat;42;;;1018KT;Amsterdam;Amsterdam;Noord-Holland;0363200000019648;woonfunctie;53;Verblijfsobject in gebruik;0363010000556776;VBO;f;0363100012169751;Pand in gebruik;1984;123442;487351;4.92379335894988;52.3731265126493;Derde Wittenburgerdwstr
Derde Wittenburgerdwarsstraat;44;;;1018KT;Amsterdam;Amsterdam;Noord-Holland;0363200000019649;woonfunctie;53;Verblijfsobject in gebruik;0363010000556777;VBO;f;0363100012169751;Pand in gebruik;1984;123442;487351;4.92379335894988;52.3731265126493;Derde Wittenburgerdwstr
Derde Wittenburgerdwarsstraat;46;;;1018KT;Amsterdam;Amsterdam;Noord-Holland;0363200000019650;woonfunctie;53;Verblijfsobject in gebruik;0363010000556778;VBO;f;0363100012169751;Pand in gebruik;1984;123442;487351;4.92379335894988;52.3731265126493;Derde Wittenburgerdwstr
Derde Wittenburgerdwarsstraat;48;;;1018KT;Amsterdam;Amsterdam;Noord-Holland;0363200000019651;woonfunctie;74;Verblijfsobject in gebruik;0363010000556779;VBO;f;0363100012169751;Pand in gebruik;1984;123442;487351;4.92379335894988;52.3731265126493;Derde Wittenburgerdwstr
Derde Wittenburgerdwarsstraat;50;;;1018KT;Amsterdam;Amsterdam;Noord-Holland;0363200000019652;woonfunctie;75;Verblijfsobject in gebruik;0363010000556780;VBO;f;0363100012169751;Pand in gebruik;1984;123442;487351;4.92379335894988;52.3731265126493;Derde Wittenburgerdwstr
Derde Wittenburgerdwarsstraat;52;;;1018KT;Amsterdam;Amsterdam;Noord-Holland;0363200000019653;woonfunctie;73;Verblijfsobject in gebruik;0363010000556781;VBO;f;0363100012169751;Pand in gebruik;1984;123442;487351;4.92379335894988;52.3731265126493;Derde Wittenburgerdwstr
Derde Wittenburgerdwarsstraat;54;;;1018KT;Amsterdam;Amsterdam;Noord-Holland;0363200000019654;woonfunctie;74;Verblijfsobject in gebruik;0363010000556782;VBO;f;0363100012169751;Pand in gebruik;1984;123442;487351;4.92379335894988;52.3731265126493;Derde Wittenburgerdwstr
Derde Wittenburgerdwarsstraat;56;;;1018KT;Amsterdam;Amsterdam;Noord-Holland;0363200000019655;woonfunctie;40;Verblijfsobject in gebruik;0363010000556783;VBO;f;0363100012169751;Pand in gebruik;1984;123442;487351;4.92379335894988;52.3731265126493;Derde Wittenburgerdwstr
Derde Wittenburgerdwarsstraat;58;;;1018KT;Amsterdam;Amsterdam;Noord-Holland;0363200000019656;woonfunctie;40;Verblijfsobject in gebruik;0363010000556784;VBO;f;0363100012169751;Pand in gebruik;1984;123442;487351;4.92379335894988;52.3731265126493;Derde Wittenburgerdwstr
Derde Wittenburgerdwarsstraat;60;;;1018KT;Amsterdam;Amsterdam;Noord-Holland;0363200000019657;woonfunctie;40;Verblijfsobject in gebruik;0363010000556785;VBO;f;0363100012169751;Pand in gebruik;1984;123442;487351;4.92379335894988;52.3731265126493;Derde Wittenburgerdwstr
Derde Wittenburgerdwarsstraat;62;;;1018KT;Amsterdam;Amsterdam;Noord-Holland;0363200000019658;woonfunctie;66;Verblijfsobject in gebruik;0363010000556786;VBO;f;0363100012169751;Pand in gebruik;1984;123442;487351;4.92379335894988;52.3731265126493;Derde Wittenburgerdwstr
Mariëndaal;34;;;1025BV;Amsterdam;Amsterdam;Noord-Holland;0363200000196233;overige gebruiksfunctie;1;Verblijfsobject in gebruik;0363010000735257;VBO;f;0363100012067216;Pand in gebruik;1968;124722;490548;4.94230065126453;52.4019310252149;
Groen van Prinstererstraat;56;;H;1051EN;Amsterdam;Amsterdam;Noord-Holland;0363200000113477;woonfunctie;72;Verblijfsobject in gebruik;0363010000651264;VBO;f;0363100012127747;Pand in gebruik;1911;119936;488475;4.87219437779442;52.3830155150211;Groen van Prinstererstr
Nicolaas Beetsstraat;50;;4;1053RM;Amsterdam;Amsterdam;Noord-Holland;0363200000539591;woonfunctie;41;Verblijfsobject in gebruik;0363010001168946;VBO;f;0363100012161954;Pand in gebruik;1905;119441;486564;4.86512644667347;52.3658090286297;
Hendrikje Stoffelsstraat;52;;;1058GC;Amsterdam;Amsterdam;Noord-Holland;0363200000539369;woonfunctie;104;Verblijfsobject in gebruik;0363010001168481;VBO;f;0363100012238489;Pand in gebruik;2010;118026;485540;4.84446485194076;52.3565126458206;
Lakenhalstraat;16;;;1064WZ;Amsterdam;Amsterdam;Noord-Holland;0363200000473024;Standplaats;0;Plaats aangewezen;0363030001012495;STA;f;;"";;117237.225197259;486504.414907136;4.83277868940514;52.3651264247963;
Hygiëaplein;36;;1;1076RV;Amsterdam;Amsterdam;Noord-Holland;0363200000137852;woonfunctie;52;Verblijfsobject in gebruik;0363010000675883;VBO;f;0363100012145586;Pand in gebruik;1931;119292;484418;4.86316671415507;52.3465126441991;
Hygiëaplein;36;;2;1076RV;Amsterdam;Amsterdam;Noord-Holland;0363200000137853;woonfunctie;52;Verblijfsobject in gebruik;0363010000675884;VBO;f;0363100012145586;Pand in gebruik;1931;119292;484418;4.86316671415507;52.3465126441991;
Hygiëaplein;36;;3;1076RV;Amsterdam;Amsterdam;Noord-Holland;0363200000137854;woonfunctie;52;Verblijfsobject in gebruik;0363010000675885;VBO;f;0363100012145586;Pand in gebruik;1931;119292;484418;4.86316671415507;52.3465126441991;
Hygiëaplein;36;;H;1076RV;Amsterdam;Amsterdam;Noord-Holland;0363200000137851;woonfunctie;53;Verblijfsobject in gebruik;0363010000675882;VBO;f;0363100012145586;Pand in gebruik;1931;119292;484418;4.86316671415507;52.3465126441991;
Boris Pasternakstraat;563;;;1102TG;Amsterdam;Amsterdam;Noord-Holland;0363200000368484;woonfunctie;50;Verblijfsobject in gebruik;0363010000911175;VBO;f;0363100012085602;Pand in gebruik;1984;124841;481043;4.94490144569048;52.3165126406551;
Vergulden Wagen;10;;;1111TE;Diemen;Diemen;Noord-Holland;0384200000011556;woonfunctie;156;Verblijfsobject in gebruik;0384010000008228;VBO;f;0384100000008808;Pand in gebruik;1989;126628.158;484731.652;4.97079995919944;52.3497592651264;
Minnellistraat;42;;;1325TA;Almere;Almere;Flevoland;0034200000050535;woonfunctie;82;Verblijfsobject in gebruik;0034010000042795;VBO;f;0034100000082123;Pand in gebruik;1997;145276.397;485679.122;5.24446512649329;52.3589209705172;
Dwangmolenstraat;195;;;1333GZ;Almere;Almere;Flevoland;0034200000007159;woonfunctie;59;Verblijfsobject in gebruik;0034010000029448;VBO;f;0034100000018060;Pand in gebruik;1989;147183.339;489897.601;5.27236029118072;52.3968651264313;
Middachtenlaan;16;G;;1333XR;Almere;Almere;Flevoland;0034200000090299;woonfunctie;102;Verblijfsobject in gebruik;0034010000088406;VBO;f;0034100000107318;Pand in gebruik;2015;147169.022;489263.993;5.27216470570728;52.3911703651264;
Lotusbloemweg;35;;;1338VV;Almere;Almere;Flevoland;0034200000033338;woonfunctie;123;Verblijfsobject in gebruik;0034010000070761;VBO;f;0034100000034893;Pand in gebruik;1991;147967.635;488728.533;5.28390777651264;52.3863687079496;
Rietgorsplein;169;;;1444TG;Purmerend;Purmerend;Noord-Holland;0439200000023113;woonfunctie;61;Verblijfsobject in gebruik;0439010000020071;VBO;f;0439100000002193;Pand in gebruik;1974;126166.92;503718.99;4.96239665126423;52.5203791076264;
Koperwiek;11;;;1733BA;Nieuwe Niedorp;Hollands Kroon;Noord-Holland;0412200000583585;woonfunctie;120;Verblijfsobject in gebruik;0412010000583586;VBO;f;0412100000572890;Pand in gebruik;2010;122654.116;528903.756;4.90818605815171;52.7465126444002;
Molenvaart;159;a;;1761AD;Anna Paulowna;Hollands Kroon;Noord-Holland;0366200000003253;woonfunctie;125;Verblijfsobject in gebruik;0366010000003253;VBO;f;0366100000006035;Pand in gebruik;1994;117093.259;542143.185;4.82430989169809;52.8651264199129;
Visserslaan;4;;;1815VD;Alkmaar;Alkmaar;Noord-Holland;0361200000037554;woonfunctie;88;Verblijfsobject in gebruik;0361010000037654;VBO;f;0361100000018613;Pand in gebruik;1994;110978.239;516492.038;4.73693675813921;52.6341546512647;
Rijnstraat;2;;;1823ED;Alkmaar;Alkmaar;Noord-Holland;0361200000029917;woonfunctie;107;Verblijfsobject in gebruik;0361010000030029;VBO;f;0361100000017463;Pand in gebruik;1972;112886.106;516419.35;4.76512646385588;52.6336522185877;
Brigantijn;31;;;1826BB;Alkmaar;Alkmaar;Noord-Holland;0361200000004576;woonfunctie;105;Verblijfsobject in gebruik;0361010000004670;VBO;f;0361100000103149;Pand in gebruik;1979;112708.702;518380.686;4.76225582233091;52.6512641948958;
Benedenweg;314;;;1834BE;Sint Pancras;Langedijk;Noord-Holland;0416200000229543;woonfunctie;303;Verblijfsobject in gebruik;0416010000229544;VBO;f;0416100000209733;Pand in gebruik;1970;113724;518372;4.77725940095994;52.6512640259006;
Ruiterweg;7;;;1901BH;Castricum;Castricum;Noord-Holland;0383200000011438;woonfunctie;102;Verblijfsobject in gebruik;0383010001011438;VBO;f;0383100000010502;Pand in gebruik;1960;105871.968;507360.298;4.66286512640882;52.5516554457556;
Zeestraat;79;;;1942AL;Beverwijk;Beverwijk;Noord-Holland;0375200000021405;woonfunctie;121;Verblijfsobject in gebruik;0375010000021405;VBO;f;0375100000012497;Pand in gebruik;1900;105007;499679;4.65126436174493;52.482547592321;
Dellaertlaan;73;;;1945WG;Beverwijk;Beverwijk;Noord-Holland;0375200000005287;woonfunctie;79;Verblijfsobject in gebruik;0375010000005287;VBO;f;0375100000015318;Pand in gebruik;1971;105714;501204;4.66144620294875;52.4963165126428;
Korte Poellaan;21;F;;2012VS;Haarlem;Haarlem;Noord-Holland;0392200000101312;woonfunctie;39;Verblijfsobject in gebruik (niet ingemeten);0392010000101263;VBO;f;0392100000033933;Pand in gebruik (niet ingemeten);1946;103881.02;487733.36;4.63651264133974;52.3750901670025;
Archipelstraat;73;;;2022TD;Haarlem;Haarlem;Noord-Holland;0392200000002716;industriefunctie;19;Verblijfsobject in gebruik;0392010000002716;VBO;f;0392100000016296;Pand in gebruik;1932;104916.214;490746.293;4.65126406165482;52.4022625930939;
Vondelweg;20;B;;2025AA;Haarlem;Haarlem;Noord-Holland;0392200000100249;woonfunctie;40;Verblijfsobject in gebruik;0392010000100208;VBO;f;0392100000054038;Pand in gebruik;1939;105276.771;491215.559;4.65649219386131;52.406512641638;
Jacob Geelstraat;27;;;2032VG;Haarlem;Haarlem;Noord-Holland;0392200000026505;woonfunctie;66;Verblijfsobject in gebruik;0392010000026505;VBO;f;0392100000005615;Pand in gebruik;1924;104888.921;488054.815;4.6512647305665;52.3780719834284;
Evertsenstraat;7;;;2161TE;Lisse;Lisse;Zuid-Holland;0553200000002140;woonfunctie;93;Verblijfsobject in gebruik;0553010000001209;VBO;f;0553100000003941;Pand in gebruik;1959;99034;474908;4.56746966512648;52.2593571094526;
Rozenlaan;7;;;2264TS;Leidschendam;Leidschendam-Voorburg;Zuid-Holland;1916200000030926;woonfunctie;71;Verblijfsobject in gebruik;1916010000073263;VBO;f;1916100000094108;Pand in gebruik;1955;87106.37;456284.86;4.39651264473616;52.0906537830392;
Tankval;23;;;2408ZC;Alphen aan den Rijn;Alphen aan den Rijn;Zuid-Holland;0484200000037196;industriefunctie;4503;Verblijfsobject in gebruik;0484010000037196;VBO;f;0484100000001292;Pand in gebruik;2007;105273.505;458442.162;4.66126512647886;52.1119723868798;
Simon Carmiggelthof;128;;;2492JN;'s-Gravenhage;'s-Gravenhage;Zuid-Holland;0518200000522923;woonfunctie;112;Verblijfsobject in gebruik;0518010000522924;VBO;f;0518100000248020;Pand in gebruik;2009;87454.321;453439.638;4.40215238581868;52.0651264440717;
Simon Carmiggelthof;136;;;2492JN;'s-Gravenhage;'s-Gravenhage;Zuid-Holland;0518200000718255;woonfunctie;114;Verblijfsobject in gebruik;0518010000718256;VBO;f;0518100000248020;Pand in gebruik;2009;87454.321;453439.638;4.40215238581868;52.0651264440717;
Simon Carmiggelthof;144;;;2492JN;'s-Gravenhage;'s-Gravenhage;Zuid-Holland;0518200000686059;woonfunctie;114;Verblijfsobject in gebruik;0518010000686060;VBO;f;0518100000248020;Pand in gebruik;2009;87454.321;453439.638;4.40215238581868;52.0651264440717;
Simon Carmiggelthof;152;;;2492JN;'s-Gravenhage;'s-Gravenhage;Zuid-Holland;0518200000785668;woonfunctie;114;Verblijfsobject in gebruik;0518010000785669;VBO;f;0518100000248020;Pand in gebruik;2009;87454.321;453439.638;4.40215238581868;52.0651264440717;
Simon Carmiggelthof;160;;;2492JN;'s-Gravenhage;'s-Gravenhage;Zuid-Holland;0518200000520422;woonfunctie;114;Verblijfsobject in gebruik;0518010000520423;VBO;f;0518100000248020;Pand in gebruik;2009;87454.321;453439.638;4.40215238581868;52.0651264440717;
Simon Carmiggelthof;168;;;2492JN;'s-Gravenhage;'s-Gravenhage;Zuid-Holland;0518200000785670;woonfunctie;114;Verblijfsobject in gebruik;0518010000785671;VBO;f;0518100000248020;Pand in gebruik;2009;87454.321;453439.638;4.40215238581868;52.0651264440717;
Simon Carmiggelthof;176;;;2492JN;'s-Gravenhage;'s-Gravenhage;Zuid-Holland;0518200000486526;woonfunctie;114;Verblijfsobject in gebruik;0518010000486527;VBO;f;0518100000248020;Pand in gebruik;2009;87454.321;453439.638;4.40215238581868;52.0651264440717;
Simon Carmiggelthof;184;;;2492JN;'s-Gravenhage;'s-Gravenhage;Zuid-Holland;0518200000888163;woonfunctie;114;Verblijfsobject in gebruik;0518010000888164;VBO;f;0518100000248020;Pand in gebruik;2009;87454.321;453439.638;4.40215238581868;52.0651264440717;
Simon Carmiggelthof;192;;;2492JN;'s-Gravenhage;'s-Gravenhage;Zuid-Holland;0518200000718257;woonfunctie;114;Verblijfsobject in gebruik;0518010000718258;VBO;f;0518100000248020;Pand in gebruik;2009;87454.321;453439.638;4.40215238581868;52.0651264440717;
Simon Carmiggelthof;200;;;2492JN;'s-Gravenhage;'s-Gravenhage;Zuid-Holland;0518200000587462;woonfunctie;114;Verblijfsobject in gebruik;0518010000587463;VBO;f;0518100000248020;Pand in gebruik;2009;87454.321;453439.638;4.40215238581868;52.0651264440717;
Simon Carmiggelthof;208;;;2492JN;'s-Gravenhage;'s-Gravenhage;Zuid-Holland;0518200000819706;woonfunctie;114;Verblijfsobject in gebruik;0518010000819707;VBO;f;0518100000248020;Pand in gebruik;2009;87454.321;453439.638;4.40215238581868;52.0651264440717;
Simon Carmiggelthof;216;;;2492JN;'s-Gravenhage;'s-Gravenhage;Zuid-Holland;0518200000718259;woonfunctie;114;Verblijfsobject in gebruik;0518010000718260;VBO;f;0518100000248020;Pand in gebruik;2009;87454.321;453439.638;4.40215238581868;52.0651264440717;
Lutherse Burgwal;36;;;2512CB;'s-Gravenhage;'s-Gravenhage;Zuid-Holland;0518200001651264;woonfunctie;82;Verblijfsobject in gebruik;0518010001651263;VBO;f;0518100000284272;Pand in gebruik;1938;81192.49;454592.426;4.31059862692758;52.0746874159815;
Noordweg;77;;;2548AB;'s-Gravenhage;'s-Gravenhage;Zuid-Holland;0518200000481119;woonfunctie;152;Verblijfsobject in gebruik;0518010000481120;VBO;f;0518100000341952;Pand in gebruik;1906;79003.653;450057.41;4.27968526963963;52.0336365126402;
Managuahof;53;;;2548GV;'s-Gravenhage;'s-Gravenhage;Zuid-Holland;0518200000651264;woonfunctie;93;Verblijfsobject in gebruik;0518010000651265;VBO;f;0518100000220380;Pand in gebruik;2004;79469.025;450013.11;4.28647586061416;52.0333019863833;
Laan van de Mensenrechten;107;;;2552NR;'s-Gravenhage;'s-Gravenhage;Zuid-Holland;0518200000581093;woonfunctie;106;Verblijfsobject in gebruik;0518010000581094;VBO;f;0518100000304279;Pand in gebruik;1980;77673.683;452954.579;4.25965126420568;52.0594885499598;Ln van de Mensenrechten
Gerardus de Haenstraat;30;;;2612JJ;Delft;Delft;Zuid-Holland;0503200000024292;woonfunctie;67;Verblijfsobject in gebruik;0503010000037174;VBO;f;0503100000017678;Pand in gebruik;1953;85210.731;447924.873;4.37056365126409;52.0152874603397;
Sint Olofslaan;3;;;2613EH;Delft;Delft;Zuid-Holland;0503200000017894;woonfunctie;237;Verblijfsobject in gebruik;0503010000035382;VBO;f;0503100000029063;Pand in gebruik;1891;83945.7;447519.1;4.35222266512648;52.0114802262438;
Delfgauwseweg;27;;;2628EG;Delft;Delft;Zuid-Holland;0503200000028070;woonfunctie;78;Verblijfsobject in gebruik;0503010000039086;VBO;f;0503100000021012;Pand in gebruik;1910;85285.571;447355.458;4.37176965126457;52.0101795450575;
Zwanebloem;29;;;2631SG;Nootdorp;Pijnacker-Nootdorp;Zuid-Holland;1926200000535851;woonfunctie;106;Verblijfsobject in gebruik;1926010000535852;VBO;f;1926100000479230;Pand in gebruik;1992;87318.927;450740.732;4.40071279900215;52.0408548651264;
Marktstraat;66;;;2741NK;Waddinxveen;Waddinxveen;Zuid-Holland;0627200000247021;woonfunctie;109;Verblijfsobject in gebruik;0627010000029791;VBO;f;0627100000018443;Pand in gebruik;2014;104509.451;450654.127;4.65126417283381;52.0419086895813;
Promenade;120;;;2741NL;Waddinxveen;Waddinxveen;Zuid-Holland;0627200000246897;woonfunctie;73;Verblijfsobject in gebruik;0627010000029665;VBO;f;0627100000018443;Pand in gebruik;2014;104508.11;450522.762;4.65126402973003;52.0407279256679;
Willem-Alexanderplantsoen;6;;;2751BP;Moerkapelle;Zuidplas;Zuid-Holland;1892200000681253;woonfunctie;155;Verblijfsobject in gebruik;1892010000681254;VBO;f;1892100000653363;Pand in gebruik;1974;99764;451110;4.58202812651264;52.0455532873464;Willem-Alexanderplnts
Voorofscheweg;233;;;2771MK;Boskoop;Alphen aan den Rijn;Zuid-Holland;0499200002035367;woonfunctie;103;Verblijfsobject in gebruik;0499010002028483;VBO;f;0499100002019611;Pand in gebruik;1982;104546;454261;4.65126409632367;52.0743286735193;
Koningin Julianastraat;65;;;2841VN;Moordrecht;Zuidplas;Zuid-Holland;1892200000690295;woonfunctie;64;Verblijfsobject in gebruik;1892010000690296;VBO;f;1892100000654351;Pand in gebruik;1959;105493.1;444346.4;4.6665126434484;51.9853063740641;
Groen van Prinstererstraat;83;;;2953BD;Alblasserdam;Alblasserdam;Zuid-Holland;0482200001270261;woonfunctie;121;Verblijfsobject in gebruik;0482010001261372;VBO;f;0482100001246821;Pand in gebruik;1967;104317;431646.5;4.65126491312804;51.8710581909361;Groen van Prinstererstr
Vrijenburglaan;1;;;2994CD;Barendrecht;Barendrecht;Zuid-Holland;0489200000249113;woonfunctie;150;Verblijfsobject in gebruik;0489010000249114;VBO;f;0489100000195263;Pand in gebruik;2005;94385.046;430656.118;4.50723788032922;51.8611651264806;
Heer Daniëlstraat;66;;;3073DD;Rotterdam;Rotterdam;Zuid-Holland;0599200000297167;woonfunctie;104;Verblijfsobject in gebruik;0599010000309159;VBO;f;0599100000309159;Pand in gebruik;1924;94171.8;433876.16;4.50357438651264;51.890081812844;
Buitenplaats Herkingen;19;c;;3249BX;Herkingen;Goeree-Overflakkee;Zuid-Holland;0504200001651264;logiesfunctie;60;Verblijfsobject in gebruik;0504010001647038;VBO;f;0504100001643711;Pand in gebruik;1979;64862.694;414400.405;4.08297273527083;51.7110900357806;
Zoutmanstraat;91;;;3317XM;Dordrecht;Dordrecht;Zuid-Holland;0505200000069609;woonfunctie;72;Verblijfsobject in gebruik;0505010000069609;VBO;f;0505100000032562;Pand in gebruik;1996;104226.76;422732.639;4.65126432114157;51.790934420183;
Zoutmanstraat;95;;;3317XM;Dordrecht;Dordrecht;Zuid-Holland;0505200000069611;woonfunctie;74;Verblijfsobject in gebruik;0505010000069611;VBO;f;0505100000032562;Pand in gebruik;1996;104226.194;422675.636;4.65126447555958;51.7904220374723;
Julianaweg;176;;;3525VK;Utrecht;Utrecht;Utrecht;0344200000141306;woonfunctie;109;Verblijfsobject in gebruik;0344010000148464;VBO;f;0344100000003017;Pand in gebruik;1936;136577.056;453015.584;5.11853792561914;52.0651264121265;
Sumatrastraat;33;;BS;3531PB;Utrecht;Utrecht;Utrecht;0344200000080104;woonfunctie;94;Verblijfsobject in gebruik;0344010000077917;VBO;f;0344100000058921;Pand in gebruik;1918;135499.744;455982.567;5.10265796227307;52.0917566512648;
Tweede Oosterparklaan;316;;;3544AZ;Utrecht;Utrecht;Utrecht;0344200000149198;woonfunctie;125;Verblijfsobject in gebruik;0344010000085565;VBO;f;0344100000028245;Pand in gebruik;2001;132926.447;455717.675;5.06512640792124;52.0892792298587;
Warande;148;;;3705ZL;Zeist;Zeist;Utrecht;0355200000786665;woonfunctie;231;Verblijfsobject in gebruik;0355010000786666;VBO;f;0355100000744260;Pand in gebruik;1979;143656;456618;5.22165126450549;52.0976950249489;
Abt Ludolfweg;160;;;3732AT;De Bilt;De Bilt;Utrecht;0310200000721382;woonfunctie;62;Verblijfsobject in gebruik;0310010000721383;VBO;f;0310100000659680;Pand in gebruik;1964;141092.618;458352.884;5.18417122424002;52.1132296512642;
Hazepad;149;;;3766JP;Soest;Soest;Utrecht;0342200000006486;woonfunctie;93;Verblijfsobject in gebruik;0342010000006409;VBO;f;0342100000003503;Pand in gebruik;1987;147511.158;464113.133;5.2777477970996;52.1651264285946;
Tuinstraat;119;A;;3901RA;Veenendaal;Veenendaal;Utrecht;0345200002063495;woonfunctie;297;Verblijfsobject in gebruik;0345010002063496;VBO;f;0345100001998304;Pand in gebruik;1975;166664.08;448785.61;5.5571586512647;52.0272901370429;
Kamgras;2;;;3902BC;Veenendaal;Veenendaal;Utrecht;0345200002032465;woonfunctie;128;Verblijfsobject in gebruik;0345010002032466;VBO;f;0345100002020923;Pand in gebruik;1975;167209.36;449418.1;5.56512641237107;52.0329632537706;
Heinelaan;15;;;3931WZ;Woudenberg;Woudenberg;Utrecht;0351200000003636;woonfunctie;165;Verblijfsobject in gebruik;0351010000003636;VBO;f;0351100000005988;Pand in gebruik;2006;157997;454511;5.43092239795458;52.0788651264131;
Rijk Takkenlaan;9;;;3984BS;Odijk;Bunnik;Utrecht;0312200000004689;woonfunctie;89;Verblijfsobject in gebruik;0312010000004848;VBO;f;0312100000005552;Pand in gebruik;1993;144096;451828;5.2282254392827;52.0546512648107;
Broekdijksestraat;1;;;4054NJ;Echteld;Neder-Betuwe;Gelderland;1740200000102288;woonfunctie;397;Verblijfsobject in gebruik;1740010000014237;VBO;f;1740100000013094;Pand in gebruik;1900;161271;436244;5.47834731454264;51.9146512648069;
Koningin Wilhelminastraat;47;;;4241AW;Arkel;Molenlanden;Zuid-Holland;0689200000001148;woonfunctie;91;Verblijfsobject in gebruik;0689010000000865;VBO;f;0689100000008355;Pand in gebruik;1957;128075.956;430931.607;4.99629926512645;51.866287347081;Koningin Wilhelminastr
's Gravenmeet;49;;;4328PG;Burgh-Haamstede;Schouwen-Duiveland;Zeeland;1676200000478369;woonfunctie;93;Verblijfsobject in gebruik;1676010000478370;VBO;f;1676100000448750;Pand in gebruik;1995;40684.418;412394.629;3.73391182955189;51.6886512644403;
Oude Zandweg;3;;;4361SK;Westkapelle;Veere;Zeeland;0717200000124227;industriefunctie;130;Verblijfsobject in gebruik;0717010000013398;VBO;f;0717100000022219;Pand in gebruik;2006;19761.117;395640.494;3.43794624543255;51.5334651264663;
Sint Sebastiaanstraat;12;;;4527HC;Aardenburg;Sluis;Zeeland;1714200000805867;woonfunctie;192;Verblijfsobject in gebruik;1714010000805868;VBO;f;1714100000805866;Pand in gebruik (niet ingemeten);2018;18889.264;366772.159;3.43651264143508;51.2738886392157;
Geulstraat;76;;;4535CZ;Terneuzen;Terneuzen;Zeeland;0715200000004819;woonfunctie;115;Verblijfsobject in gebruik;0715010000004819;VBO;f;0715100000024296;Pand in gebruik;1976;48314.996;370496.77;3.85694976512641;51.3136621161758;
Bedrijvenstraat;11;;;4543NZ;Zaamslag;Terneuzen;Zeeland;0715200000034531;industriefunctie;95;Verblijfsobject in gebruik;0715010000034531;VBO;f;0715100000039853;Pand in gebruik;1980;51944.104;370624.02;3.90895065126416;51.3154779258495;
Rijtuigweg-Zuid;15;;;4611WP;Bergen op Zoom;Bergen op Zoom;Noord-Brabant;0748200000003429;woonfunctie;59;Verblijfsobject in gebruik;0748010000003429;VBO;f;0748100000000668;Pand in gebruik;1982;78288.8;390455;4.28245689211187;51.4978891651264;
Mosselbank;15;g;;4761HA;Zevenbergen;Moerdijk;Noord-Brabant;1709200000444083;overige gebruiksfunctie;18;Verblijfsobject in gebruik;1709010000003195;VBO;f;1709100000044543;Pand in gebruik;1968;100423.38;407232.555;4.59857484761263;51.6512644419195;
Ruusbroecstraat;8;;;4819GE;Breda;Breda;Noord-Brabant;0758200000013574;overige gebruiksfunctie;16;Verblijfsobject in gebruik;0758010000043884;VBO;f;0758100000046301;Pand in gebruik;1961;111879;398889;4.76512649226652;51.5772695870717;
Beiaard;107;;;4876CC;Etten-Leur;Etten-Leur;Noord-Brabant;0777200000160076;woonfunctie;111;Verblijfsobject in gebruik;0777010000160077;VBO;f;0777100000148140;Pand in gebruik;1972;102888.37;397435.64;4.63565126429194;51.5634449353314;
Dolium;7;;;4906LZ;Oosterhout;Oosterhout;Noord-Brabant;0826200000030856;woonfunctie;228;Verblijfsobject in gebruik;0826010000030506;VBO;f;0826100000037340;Pand in gebruik;2017;116024.414;407087.721;4.82401199725054;51.6512642163955;
Marie Baronstraat;15;;;5026CG;Tilburg;Tilburg;Noord-Brabant;0855200000116903;woonfunctie;139;Verblijfsobject in gebruik;0855010000117264;VBO;f;0855100000706627;Pand in gebruik;2017;132763.595;394610.094;5.06667801651264;51.5400232448248;
Fazantenpad;8;;;5076SH;Haaren;Haaren;Noord-Brabant;0788200000001849;logiesfunctie;60;Verblijfsobject in gebruik;0788010000004875;VBO;f;0788100000005703;Pand in gebruik;2002;145396.347;403198.392;5.24853465126442;51.6175770887113;
Hoge Ham;121;;;5104JD;Dongen;Dongen;Noord-Brabant;0766200000003543;kantoorfunctie;355;Verblijfsobject in gebruik;0766010000003543;VBO;f;0766100000007309;Pand in gebruik;1904;124197.087;404337.475;4.94234441318038;51.6270526512641;
Rector van den Broekstraat;6;c;;5111VT;Baarle-Nassau;Baarle-Nassau;Noord-Brabant;0744200000004312;woonfunctie;138;Verblijfsobject in gebruik;0744010000004300;VBO;f;0744100000007587;Pand in gebruik;2015;123176.058;384074.768;4.92943695651264;51.4448667469974;Rect van den Broekstraat
César Francklaan;10;;;5144WG;Waalwijk;Waalwijk;Noord-Brabant;0867200000027323;woonfunctie;87;Verblijfsobject in gebruik;0867010000002789;VBO;f;0867100000013696;Pand in gebruik;1977;132722;409552;5.06512643538148;51.6743261354782;
Laan van Tasmanië;267;;;5152HW;Drunen;Heusden;Noord-Brabant;0797200000825659;woonfunctie;84;Verblijfsobject in gebruik;0797010000056689;VBO;f;0797100000029693;Pand in gebruik;2011;136359.72;410775.303;5.11765126442697;51.6854544857143;
Haverdonklaan;6;;;5223VG;'s-Hertogenbosch;'s-Hertogenbosch;Noord-Brabant;0796200000432607;woonfunctie;77;Verblijfsobject in gebruik;0796010000432606;VBO;f;0796100000432429;Pand in gebruik;2018;147390.443;411035.059;5.27715651264376;51.6880476110336;
Hoogstraat;8;;;5261TH;Vught;Vught;Noord-Brabant;0865200000003584;woonfunctie;65;Verblijfsobject in gebruik;0865010000007843;VBO;f;0865100000009524;Pand in gebruik;1939;148759.527;406940.926;5.29702864537471;51.6512643925112;
Teugenaarsstraat;2;;;5348JD;Oss;Oss;Noord-Brabant;0828200001534709;woonfunctie;163;Verblijfsobject in gebruik;0828010001534710;VBO;f;0828100001473983;Pand in gebruik;1935;164908.152;420085.279;5.5307465126424;51.7693586055272;
Bijland;210;;;5403VJ;Uden;Uden;Noord-Brabant;0856200000382322;woonfunctie;100;Verblijfsobject in gebruik;0856010000382323;VBO;f;0856100000349512;Pand in gebruik;1972;172412.978;408663.632;5.63889924603239;51.6665126459795;
Hekkeslag;23;;;5404ML;Uden;Uden;Noord-Brabant;0856200000356939;woonfunctie;97;Verblijfsobject in gebruik;0856010000356940;VBO;f;0856100000334432;Pand in gebruik;1988;170657.374;406961.453;5.61344638362936;51.6512645182004;
Heilarensestraat;19;;;5473RA;Heeswijk-Dinther;Bernheze;Noord-Brabant;1721200000007220;woonfunctie;215;Verblijfsobject in gebruik;1721010000007220;VBO;f;1721100000005561;Pand in gebruik;1986;161595.368;406941.443;5.48250281997583;51.6512647164723;
Provincialeweg;91;;;5503HC;Veldhoven;Veldhoven;Noord-Brabant;0861200000403115;woonfunctie;148;Verblijfsobject in gebruik;0861010000403116;VBO;f;0861100000375351;Pand in gebruik;1933;157351.02;380632.365;5.42099606512644;51.4148165425958;
't Veld;6;;;5503TK;Veldhoven;Veldhoven;Noord-Brabant;0861200000404933;woonfunctie;103;Verblijfsobject in gebruik;0861010000404934;VBO;f;0861100000364127;Pand in gebruik;1957;156343.573;380201.251;5.40651264426497;51.410944710239;
Vezelstraat;14;;;5541VN;Reusel;Reusel-De Mierden;Noord-Brabant;1667200000001645;woonfunctie;132;Verblijfsobject in gebruik;1667010000002210;VBO;f;1667100000005205;Pand in gebruik;1961;139634.423;375126.953;5.16656496182909;51.3651264091112;
Mouterwei;8;;;5551SC;Valkenswaard;Valkenswaard;Noord-Brabant;0858200000010869;woonfunctie;114;Verblijfsobject in gebruik;0858010000007418;VBO;f;0858100000007472;Pand in gebruik;1976;158111;374358;5.43186512643583;51.3584144538566;
Kornoeljelaan;58;;;5552RD;Valkenswaard;Valkenswaard;Noord-Brabant;0858200000009203;woonfunctie;118;Verblijfsobject in gebruik;0858010000015300;VBO;f;0858100000009941;Pand in gebruik;1971;158805;374710;5.44183265126468;51.3615742215703;
d'n Overweg;13;;;5554EE;Valkenswaard;Valkenswaard;Noord-Brabant;0858200000018620;woonfunctie;184;Verblijfsobject in gebruik;0858010000018541;VBO;f;0858100000024392;Pand in gebruik;2017;160428.903;373272.625;5.4651264721533;51.3486407740762;
Opwettensemolen;288;;;5612DN;Eindhoven;Eindhoven;Noord-Brabant;0772200000045828;woonfunctie;85;Verblijfsobject in gebruik;0772010000741165;VBO;f;0772100000302407;Pand in gebruik;1986;161322.907;384583.9;5.47816176512649;51.4503049876926;
Lyndakkers;62;;;5672CC;Nuenen;Nuenen, Gerwen en Nederwetten;Noord-Brabant;0820200000005472;woonfunctie;124;Verblijfsobject in gebruik;0820010000005472;VBO;f;0820100000015104;Pand in gebruik;1932;166087;386241;5.54674964577637;51.4651264050973;
De Vroente;18;;;5672TM;Nuenen;Nuenen, Gerwen en Nederwetten;Noord-Brabant;0820200000002192;woonfunctie;167;Verblijfsobject in gebruik;0820010000002192;VBO;f;0820100000012194;Pand in gebruik;1976;166535;385831;5.55318316458367;51.4614320651264;
Houtse Parallelweg;21;;;5706AA;Helmond;Helmond;Noord-Brabant;0794200000070727;woonfunctie;178;Verblijfsobject in gebruik (niet ingemeten);0794010000114813;VBO;f;0794100000394963;Pand in gebruik (niet ingemeten);1930;173346.652;387099.729;5.65126438445368;51.4726554328608;
Vlas;31;;;5721PL;Asten;Asten;Noord-Brabant;0743200000350852;woonfunctie;119;Verblijfsobject in gebruik;0743010000014026;VBO;f;0743100000013333;Pand in gebruik;2015;181279.708;379826.167;5.76490029089248;51.4069625651264;
Jacob Corneliszstraat;1;;;5831BZ;Boxmeer;Boxmeer;Noord-Brabant;0756200000006186;woonfunctie;92;Verblijfsobject in gebruik;0756010000006186;VBO;f;0756100000004944;Pand in gebruik;1973;193467;407084;5.94304227959086;51.6512643363517;
Flamingostraat;70;;;5912XK;Venlo;Venlo;Limburg;0983200000004262;woonfunctie;110;Verblijfsobject in gebruik;0983010000004262;VBO;f;0983100000007508;Pand in gebruik;1966;209184.626;374574.593;6.16512649839759;51.35777191702;
Jan van Broekhuizenstraat;5;;;5913RX;Venlo;Venlo;Limburg;0983200000021972;woonfunctie;159;Verblijfsobject in gebruik;0983010000021972;VBO;f;0983100000003522;Pand in gebruik;1992;210306.652;375404.94;6.18136371590682;51.3651264065091;Jan van Broekhuizenstr
Borneostraat;22;;;6045VX;Roermond;Roermond;Limburg;0957200000021910;woonfunctie;95;Verblijfsobject in gebruik;0957010000128662;VBO;f;0957100000257038;Pand in gebruik;1949;198119.723;354275.009;6.00381566532937;51.1762651264871;
Heuvelstraat;9;;;6051KS;Maasbracht;Maasgouw;Limburg;1641200001104475;woonfunctie;125;Verblijfsobject in gebruik;1641010001104476;VBO;f;1641100001082757;Pand in gebruik;1953;191092.867;350704.895;5.90297469173746;51.1446651264944;
Dirk Pollartdreef;5;;;6132TD;Sittard;Sittard-Geleen;Limburg;1883200000012440;woonfunctie;348;Verblijfsobject in gebruik;1883010000012440;VBO;f;1883100000002986;Pand in gebruik;1999;190947;333542;5.89917190651264;50.9904056933235;
Laathofstraat;41;;;6191GD;Beek;Beek;Limburg;0888200000037171;woonfunctie;142;Verblijfsobject in gebruik;0888010000001781;VBO;f;0888100000004891;Pand in gebruik;1975;184855.47;329299.82;5.81206512649221;50.9526254325199;
St. Martinusstraat;33;;;6245GD;Eijsden;Eijsden-Margraten;Limburg;0905200000112629;woonfunctie;115;Verblijfsobject in gebruik;0905010000002487;VBO;f;0905100000012669;Pand in gebruik;1974;177800;310263;5.7104651264496;50.7818349129548;
Leuvensbroek;1681;;;6546XX;Nijmegen;Nijmegen;Gelderland;0268200000056526;woonfunctie;94;Verblijfsobject in gebruik;0268010000040575;VBO;f;0268100000031685;Pand in gebruik;1989;182305.633;427215.323;5.7833515875695;51.8328651264493;
Bongerd;31;;;6581TJ;Malden;Heumen;Gelderland;0252200000017059;woonfunctie;120;Verblijfsobject in gebruik;0252010000010509;VBO;f;0252100000012629;Pand in gebruik;1978;187464.432;421444.104;5.85765126469542;51.7807160603554;
Pa Hoeklaan;51;Z;6;6651TE;Druten;Druten;Gelderland;0225200000009366;woonfunctie, gezondheidszorgfunctie;26;Verblijfsobject in gebruik;0225010000009353;VBO;f;0225100000014090;Pand in gebruik;2017;169486.073;433965.73;5.59765126486159;51.8940202432912;
Lijsterbeslaan;16;;;6706CE;Wageningen;Wageningen;Gelderland;0289200000008545;woonfunctie;190;Verblijfsobject in gebruik;0289010000008545;VBO;f;0289100000004744;Pand in gebruik;1950;175179.36;442622.519;5.68086903836686;51.9716512643239;
Simon Vestdijkstraat;40;;;6708NW;Wageningen;Wageningen;Gelderland;0289200000012826;woonfunctie;134;Verblijfsobject in gebruik;0289010000012826;VBO;f;0289100000000599;Pand in gebruik;1994;173139.893;444046.257;5.65126476331816;51.9845183625804;
Oude Kerkweg;23;;;6717JN;Ede;Ede;Gelderland;0228200000017750;woonfunctie;90;Verblijfsobject in gebruik;0228010000017750;VBO;f;0228100000026314;Pand in gebruik;1961;173921;448405;5.6628761651264;52.0236689132806;
Ir. Schaapstraat;16;;4;6823BZ;Arnhem;Arnhem;Gelderland;0202200000323861;woonfunctie;51;Verblijfsobject in gebruik;0202010000323862;VBO;f;0202100000214718;Pand in gebruik;1956;192720.694;446044.246;5.93651264371106;52.0014904653713;
President Kennedylaan;322;e;;6883AW;Velp;Rheden;Gelderland;0275200000166139;woonfunctie;49;Verblijfsobject in gebruik;0275010000113234;VBO;f;0275100000007943;Pand in gebruik;1974;195538.912;444472.978;5.9773651264036;51.9871694856605;
Populierenhoek;62;;;6903AZ;Zevenaar;Zevenaar;Gelderland;0299200000447809;woonfunctie;144;Verblijfsobject in gebruik;0299010000447810;VBO;f;0299100000416860;Pand in gebruik;1973;202547.937;438898.603;6.0786228846695;51.9365126450104;
Hof van Wenen;55;;;7007JN;Doetinchem;Doetinchem;Gelderland;0222200000651263;woonfunctie;135;Verblijfsobject in gebruik;0222010000651264;VBO;f;0222100000602047;Pand in gebruik;1997;215344.13;441108.96;6.26506896378042;51.9551360378148;
De Hangaarts;129;;;7041GP;'s-Heerenberg;Montferland;Gelderland;1955200000052518;woonfunctie;125;Verblijfsobject in gebruik;1955010000035112;VBO;f;1955100000023449;Pand in gebruik;1970;215166;432871;6.26103665126423;51.8811174973283;
Frans Halslaan;17;;;7242DV;Lochem;Lochem;Gelderland;0262200000011939;woonfunctie;96;Verblijfsobject in gebruik;0262010000011939;VBO;f;0262100000014401;Pand in gebruik;1966;224749.241;463827.857;6.40651264126589;52.1582078044185;
Hummeloseweg;5;B;;7255AE;Hengelo (Gld);Bronckhorst;Gelderland;1876200000014134;woonfunctie;90;Verblijfsobject in gebruik;1876010001014134;VBO;f;1876100000026493;Pand in gebruik;1994;218173.547;451311.367;6.30810749326103;52.0465126472447;
Adelaarslaan;52;;;7331GE;Apeldoorn;Apeldoorn;Gelderland;0200200000000736;woonfunctie;66;Verblijfsobject in gebruik;0200010000006021;VBO;f;0200100000950051;Pand in gebruik;1974;194508.577;468279.472;5.96512645895111;52.2012081312545;
Vermeerstraat;61;;;7412GG;Deventer;Deventer;Overijssel;0150200000040211;woonfunctie;71;Verblijfsobject in gebruik;0150010000009635;VBO;f;0150100000006047;Pand in gebruik;1948;206288;475401;6.13850016512644;52.2642410501231;
Laarmanskamp;50;;;7433AV;Schalkhaar;Deventer;Overijssel;0150200000045267;woonfunctie;101;Verblijfsobject in gebruik;0150010000019781;VBO;f;0150100000025595;Pand in gebruik;1965;209965;475539;6.19238051160959;52.2651264629703;
Merelstraat;45;;;7471GB;Goor;Hof van Twente;Overijssel;1735200000014155;woonfunctie;90;Verblijfsobject in gebruik;1735010000002099;VBO;f;1735100000018525;Pand in gebruik;1962;236221;473076;6.57634360557205;52.2397465126402;
Het Roombeekhofje;12;;;7523JL;Enschede;Enschede;Overijssel;0153200000387968;woonfunctie;120;Verblijfsobject in gebruik;0153010000387969;VBO;f;0153100000252993;Pand in gebruik;2011;257662.092;472393.159;6.88995835651264;52.2300337266316;
Pijlkruidlaan;16;;;7534JJ;Enschede;Enschede;Overijssel;0153200000420972;woonfunctie;98;Verblijfsobject in gebruik;0153010000420973;VBO;f;0153100000249468;Pand in gebruik;1998;261639.95;470549.693;6.94758487836193;52.2127147651264;
Boerskottenlaan;31;;;7574VB;Oldenzaal;Oldenzaal;Overijssel;0173200000171882;woonfunctie;151;Verblijfsobject in gebruik;0173010000171883;VBO;f;0173100000141486;Pand in gebruik;1932;260988;480975;6.94131832803496;52.3065126413474;
Knik;47;;;7591PX;Denekamp;Dinkelland;Overijssel;1774200000270350;woonfunctie;87;Verblijfsobject in gebruik;1774010000270351;VBO;f;1774100000252041;Pand in gebruik;1957;264481;489966;6.99544336512643;52.3866101941212;
Pollux;14;;;7904KN;Hoogeveen;Hoogeveen;Drenthe;0118200000256279;woonfunctie;124;Verblijfsobject in gebruik;0118010000010671;VBO;f;0118100000194100;Pand in gebruik;1971;231395;527169;6.5180725303526;52.7265126448466;
Brinkstraat;8;;;7981BD;Diever;Westerveld;Drenthe;1701200000219348;woonfunctie;164;Verblijfsobject in gebruik;1701010000219349;VBO;f;1701100000209649;Pand in gebruik;1930;217505;541181;6.31515365126404;52.8541963779543;
Gombertstraat;484;;;8031MN;Zwolle;Zwolle;Overijssel;0193200000035164;woonfunctie;58;Verblijfsobject in gebruik;0193010000035164;VBO;f;0193100000062590;Pand in gebruik;1972;202974.074;504287.466;6.09408959293195;52.5241414651264;
Schuilenburgstraat;40;;;8043WS;Zwolle;Zwolle;Overijssel;0193200000093064;woonfunctie;118;Verblijfsobject in gebruik;0193010000093020;VBO;f;0193100000065521;Pand in gebruik;2012;199489.461;505759.013;6.04294464855787;52.5376607651264;
Heuvelweg;33;;;8071XP;Nunspeet;Nunspeet;Gelderland;0302200000190011;woonfunctie;95;Verblijfsobject in gebruik;0302010000002364;VBO;f;0302100000113389;Pand in gebruik;1954;181116.331;487133.089;5.77069246512648;52.371452736692;
Ribesweg;14;;;8072GD;Nunspeet;Nunspeet;Gelderland;0302200000194935;woonfunctie;103;Verblijfsobject in gebruik;0302010000003460;VBO;f;0302100000103445;Pand in gebruik;1965;183034.386;488454.182;5.79896651264956;52.3832312451911;
Gerbrandystraat;118;;;8072WZ;Nunspeet;Nunspeet;Gelderland;0302200000189031;woonfunctie;123;Verblijfsobject in gebruik;0302010000005519;VBO;f;0302100000101583;Pand in gebruik;1972;183380.087;488741.693;5.80406826512649;52.3857974306426;
Dalmsholterweg;20;;;8147RB;Giethmen;Ommen;Overijssel;0175200000000788;woonfunctie, industriefunctie;155;Verblijfsobject in gebruik;0175010000003138;VBO;f;0175100000005941;Pand in gebruik;1950;222759;499720;6.38465126499895;52.4810021705616;
De Schans 10;21;;;8231KE;Lelystad;Lelystad;Flevoland;0995200000755804;woonfunctie, overige gebruiksfunctie;165;Verblijfsobject in gebruik;0995010000755805;VBO;f;0995100000716343;Pand in gebruik;1981;160918.334;503140.814;5.47439265126472;52.5159106080516;
Aambeeld;4;;;8253LW;Dronten;Dronten;Flevoland;0303200000651265;woonfunctie;107;Verblijfsobject in gebruik;0303010000651266;VBO;f;0303100000651264;Pand in gebruik;2017;175067.761;505614.324;5.68298666594455;52.5378038696684;
Munnikplaat;4;;;8321RJ;Urk;Urk;Flevoland;0184200000003020;woonfunctie;119;Verblijfsobject in gebruik;0184010000003248;VBO;f;0184100000004413;Pand in gebruik;1987;170640.366;519919.799;5.61840561138504;52.6665126401164;
Kloosterweg;47;;;8326CB;Sint Jansklooster;Steenwijkerland;Overijssel;1708200000006745;woonfunctie;126;Verblijfsobject in gebruik;1708010000003769;VBO;f;1708100000011161;Pand in gebruik;1906;196989;521394;6.00807044974996;52.6783651264003;
Jutte;80;;;8447AE;Heerenveen;Heerenveen;Friesland;0074200000401359;woonfunctie;97;Verblijfsobject in gebruik;0074010000401360;VBO;f;0074100000332729;Pand in gebruik;1984;190475.683;552578.823;5.91513764320892;52.9590651264355;
Zuiderveldstraat;29;;;8501KA;Joure;De Fryske Marren;Friesland;0051200001253380;woonfunctie;145;Verblijfsobject in gebruik;0051010001253381;VBO;f;0051100001229870;Pand in gebruik;1972;182649;552379;5.79865126404992;52.9577274498704;
Burg G H Mulierstraat;19;E;;8556AD;Sloten;De Fryske Marren;Friesland;0653200000162709;overige gebruiksfunctie;16;Verblijfsobject in gebruik;0653010000162710;VBO;f;0653100000148047;Pand in gebruik;2000;172769.738;545489.975;5.65126462155639;52.8962367954092;
Ubbo Emmiusstraat;5;b;;8602AW;Sneek;Súdwest-Fryslân;Friesland;0091200000048005;woonfunctie;87;Verblijfsobject in gebruik;0091010000028161;VBO;f;0091100000013716;Pand in gebruik;1988;172991;561101;5.65541532803176;53.036512646194;
Zuidvliet;344;;;8921ET;Leeuwarden;Leeuwarden;Friesland;0080200000413469;woonfunctie;63;Verblijfsobject in gebruik;0080010000413470;VBO;f;0080100000341696;Pand in gebruik;1980;183335.174;579639.935;5.81124862578745;53.2026512647359;
Mûnewei;13;;;9109NX;De Falom;Dantumadiel;Friesland;1891200001651263;woonfunctie;163;Verblijfsobject in gebruik;1891010001651264;VBO;f;1891100001637442;Pand in gebruik;1967;196221.857;586333.21;6.00495036903684;53.2619540263635;
Meinsmawei;20;;;9142DL;Moddergat;Noardeast-Fryslân;Friesland;0058200000234041;woonfunctie;96;Verblijfsobject in gebruik;0058010000234042;VBO;f;0058100000205988;Pand in gebruik;1914;201113.814;602009.98;6.08051865126498;53.4024048619479;
Zuiderdwarsvaart;25;a;;9203HW;Drachten;Smallingerland;Friesland;0090200000615483;kantoorfunctie;30;Verblijfsobject in gebruik;0090010000615484;VBO;f;0090100000594187;Pand in gebruik;1980;203351.64;569004.396;6.10918568658707;53.1056565126409;
Sydwende;32;;;9204KE;Drachten;Smallingerland;Friesland;0090200000651263;woonfunctie;284;Verblijfsobject in gebruik;0090010000651264;VBO;f;0090100000589631;Pand in gebruik;1977;200440.586;568610.692;6.06566601611146;53.102373084521;
Ferlinge Stasjonsstrjitte;38;;;9271CD;De Westereen;Dantumadiel;Friesland;1891200001642393;woonfunctie;123;Verblijfsobject in gebruik;1891010001642394;VBO;f;1891100001630284;Pand in gebruik;1986;198542.154;585828.796;6.03965126489713;53.2572379795415;Ferlinge Stasjonsstr
Swanneblom-strjitte;24;;;9288AC;Kootstertille;Achtkarspelen;Friesland;0059200000842505;woonfunctie;102;Verblijfsobject in gebruik;0059010000842506;VBO;f;0059100000818879;Pand in gebruik;1964;202285.3;580831.92;6.09499936512648;53.2120235342969;
Rosa Spierweg;16;;;9408EV;Assen;Assen;Drenthe;0106200000026251;woonfunctie;127;Verblijfsobject in gebruik;0106010000026251;VBO;f;0106100000020654;Pand in gebruik;2003;230152;557360;6.5066044651264;52.997955582647;
Veldweg;22;;818;9449PW;Nooitgedacht;Aa en Hunze;Drenthe;1680200000013545;logiesfunctie;82;Verblijfsobject in gebruik;1680010000012924;VBO;f;1680100000001741;Pand in gebruik;2006;241631.036;553671.148;6.67656512643979;52.9630907865413;
Grote Brink;42;;;9451BS;Rolde;Aa en Hunze;Drenthe;1680200000010446;woonfunctie;154;Verblijfsobject in gebruik;1680010000000840;VBO;f;1680100000004300;Pand in gebruik;1901;239889;556051;6.6512644926417;52.9847493341204;
Ericalaan;6;;;9471BS;Zuidlaren;Tynaarlo;Drenthe;1730200000021609;woonfunctie;72;Verblijfsobject in gebruik;1730010000019509;VBO;f;1730100000029913;Pand in gebruik;2016;241761.947;568655.997;6.68251829299085;53.0976966512645;
de Ruyterstraat;104;;;9601HB;Hoogezand;Midden-Groningen;Groningen;0018200000142770;woonfunctie;81;Verblijfsobject in gebruik;0018010000050800;VBO;f;0018100000127498;Pand in gebruik;2009;247048.664;576259.714;6.76359263161582;53.1651264344458;
Oeverpad;239;;;9613AL;Meerstad;Groningen;Groningen;0040200000404539;woonfunctie;143;Verblijfsobject in gebruik;0040010000027270;VBO;f;0040100000019656;Pand in gebruik;2011;239423.602;582585.854;6.65126422615328;53.2232138858225;
Einthovenlaan;37;;;9728LV;Groningen;Groningen;Groningen;0014200010893679;woonfunctie;218;Verblijfsobject in gebruik;0014010011083550;VBO;f;0014100010911545;Pand in gebruik;2007;232969.015;579504.816;6.55389410742505;53.1965126446232;
Meerweg;223;;;9752XC;Haren Gn;Groningen;Groningen;0017200000014325;woonfunctie;280;Verblijfsobject in gebruik;0017010000003003;VBO;f;0017100000004692;Pand in gebruik;1920;234414.948;575648.101;6.57457481126663;53.161651264885;
